NORAD_CAT_ID,OBJECT_NAME,OBJECT_TYPE,EPOCH,MEAN_MOTION,ECCENTRICITY,INCLINATION,RA_OF_ASC_NODE,ARG_OF_PERICENTER,MEAN_ANOMALY,BSTAR,MEAN_MOTION_DOT,MEAN_MOTION_DDOT,TLE_LINE0,TLE_LINE1,TLE_LINE2,SEMIMAJOR_AXIS,PERIOD,APOGEE,PERIGEE,DECAYED
55775.0,STARLINK-5809,PAYLOAD,2023-04-02 01:28:16,15.69931708,0.0002968,70.0007,72.8064,273.9978,86.0879,4.1803e-05,4.818e-05,0.0,0 STARLINK-5809,1 55775U 23028AL  23092.06129747  .00004818  00000-0  41803-4 0  9997,2 55775  70.0007  72.8064 0002968 273.9978  86.0879 15.69931708  5262,6737.229,91.724,361.094,357.095,0.0
55775.0,STARLINK-5809,PAYLOAD,2023-04-02 09:07:01,15.69943715,0.0002388,70.0018,71.9136,282.2501,77.8427,2.3672e-05,2.637e-05,0.0,0 STARLINK-5809,1 55775U 23028AL  23092.37987357  .00002637  00000-0  23672-4 0  9991,2 55775  70.0018  71.9136 0002388 282.2501  77.8427 15.69943715  5319,6737.195,91.723,360.669,357.451,0.0
55775.0,STARLINK-5809,PAYLOAD,2023-04-02 10:38:46,15.6993317,0.0003025,70.0008,71.7316,280.2197,79.8658,2.953e-05,3.341e-05,0.0,0 STARLINK-5809,1 55775U 23028AL  23092.44359332  .00003341  00000-0  29530-4 0  9997,2 55775  70.0008  71.7316 0003025 280.2197  79.8658 15.69933170  5338,6737.225,91.724,361.128,357.052,0.0
55775.0,STARLINK-5809,PAYLOAD,2023-04-03 01:56:18,15.69914306,0.0003429,70.0004,69.9428,267.6305,92.4498,-2.0118e-07,-2.37e-06,0.0,0 STARLINK-5809,1 55775U 23028AL  23093.08077006 -.00000237  00000-0 -20118-6 0  9991,2 55775  70.0004  69.9428 0003429 267.6305  92.4498 15.69914306  5428,6737.279,91.725,361.454,356.834,0.0
55775.0,STARLINK-5809,PAYLOAD,2023-04-03 08:03:18,15.69929847,0.000315,69.9997,69.2243,258.8343,101.2498,2.3564e-05,2.622e-05,0.0,0 STARLINK-5809,1 55775U 23028AL  23093.33562879  .00002622  00000-0  23564-4 0  9990,2 55775  69.9997  69.2243 0003150 258.8343 101.2498 15.69929847  5468,6737.235,91.724,361.222,356.977,0.0
55775.0,STARLINK-5809,PAYLOAD,2023-04-03 15:42:04,15.69917163,0.0002775,69.9999,68.3298,265.0651,95.0228,1.547e-05,1.647e-05,0.0,0 STARLINK-5809,1 55775U 23028AL  23093.65422088  .00001647  00000-0  15470-4 0  9995,2 55775  69.9999  68.3298 0002775 265.0651  95.0228 15.69917163  5519,6737.271,91.725,361.006,357.266,0.0
55775.0,STARLINK-5809,PAYLOAD,2023-04-04 00:52:34,15.69931811,0.000353,70.0014,67.2533,262.6929,97.3865,7.8045e-06,7.26e-06,0.0,0 STARLINK-5809,1 55775U 23028AL  23094.03650962  .00000726  00000-0  78045-5 0  9997,2 55775  70.0014  67.2533 0003530 262.6929  97.3865 15.69931811  5575,6737.229,91.724,361.472,356.716,0.0
55775.0,STARLINK-5809,PAYLOAD,2023-04-04 08:31:19,15.6993456,0.0003594,70.0021,66.3584,262.9054,97.1733,-4.865e-06,-7.98e-06,0.0,0 STARLINK-5809,1 55775U 23028AL  23094.35509079 -.00000798  00000-0 -48650-5 0  9994,2 55775  70.0021  66.3584 0003594 262.9054  97.1733 15.69934560  5634,6737.221,91.724,361.508,356.665,0.0
55775.0,STARLINK-5809,PAYLOAD,2023-04-05 01:20:37,15.69919345,0.0003297,70.0005,64.387,254.6286,105.4545,-1.5293e-06,-3.96e-06,0.0,0 STARLINK-5809,1 55775U 23028AL  23095.05598557 -.00000396  00000-0 -15293-5 0  9992,2 55775  70.0005  64.3870 0003297 254.6286 105.4545 15.69919345  5736,6737.265,91.724,361.351,356.908,0.0
55775.0,STARLINK-5809,PAYLOAD,2023-04-05 10:31:06,15.69941269,0.0004038,70.0003,63.3122,255.4347,104.6401,3.9189e-05,4.506e-05,0.0,0 STARLINK-5809,1 55775U 23028AL  23095.43827330  .00004506  00000-0  39189-4 0  9992,2 55775  70.0003  63.3122 0004038 255.4347 104.6401 15.69941269  5804,6737.202,91.723,361.788,356.347,0.0
55775.0,STARLINK-5809,PAYLOAD,2023-04-06 00:16:53,15.69919661,0.0003754,70.0028,61.7008,265.4109,94.6658,-3.4038e-06,-6.22e-06,0.0,0 STARLINK-5809,1 55775U 23028AL  23096.01173562 -.00000622  00000-0 -34038-5 0  9994,2 55775  70.0028  61.7008 0003754 265.4109  94.6658 15.69919661  5888,6737.264,91.724,361.658,356.6,0.0
55775.0,STARLINK-5809,PAYLOAD,2023-04-06 06:23:53,15.6993544,0.0003115,69.9991,60.9813,250.1859,109.9001,-5.605e-06,-8.87e-06,0.0,0 STARLINK-5809,1 55775U 23028AL  23096.26659483 -.00000887  00000-0 -56050-5 0  9993,2 55775  69.9991  60.9813 0003115 250.1859 109.9001 15.69935440  5923,6737.219,91.724,361.182,356.985,0.0
55775.0,STARLINK-5809,PAYLOAD,2023-04-06 21:41:25,15.69921693,0.0003009,69.9995,59.191,238.4054,121.6848,1.1168e-05,1.13e-05,0.0,0 STARLINK-5809,1 55775U 23028AL  23096.90377024  .00001130  00000-0  11168-4 0  9992,2 55775  69.9995  59.1910 0003009 238.4054 121.6848 15.69921693  6031,6737.258,91.724,361.15,357.096,0.0
55775.0,STARLINK-5809,PAYLOAD,2023-04-07 00:44:55,15.69923978,0.0002908,69.9995,58.8331,250.3149,109.7733,1.1673e-05,1.191e-05,0.0,0 STARLINK-5809,1 55775U 23028AL  23097.03120261  .00001191  00000-0  11673-4 0  9994,2 55775  69.9995  58.8331 0002908 250.3149 109.7733 15.69923978  6048,6737.251,91.724,361.076,357.157,0.0
55775.0,STARLINK-5809,PAYLOAD,2023-04-07 06:51:57,15.69873157,0.0003106,69.9975,58.1143,257.8817,102.203,0.00013566,0.00016096,0.0,0 STARLINK-5809,1 55775U 23028AL  23097.28608425  .00016096  00000-0  13566-3 0  9996,2 55775  69.9975  58.1143 0003106 257.8817 102.2030 15.69873157  6080,6737.397,91.727,361.355,357.169,0.0
55775.0,STARLINK-5809,PAYLOAD,2023-04-07 23:41:12,15.69925978,0.0003323,69.9986,56.1452,254.4939,105.589,2.7116e-06,1.13e-06,0.0,0 STARLINK-5809,1 55775U 23028AL  23097.98695376  .00000113  00000-0  27116-5 0  9995,2 55775  69.9986  56.1452 0003323 254.4939 105.5890 15.69925978  6193,6737.246,91.724,361.35,356.872,0.0
55775.0,STARLINK-5809,PAYLOAD,2023-04-08 08:51:43,15.69925289,0.0003394,69.9989,55.0723,258.6593,101.4222,-6.4106e-07,-2.9e-06,0.0,0 STARLINK-5809,1 55775U 23028AL  23098.36925483 -.00000290  00000-0 -64106-6 0  9992,2 55775  69.9989  55.0723 0003394 258.6593 101.4222 15.69925289  6262,6737.248,91.724,361.399,356.826,0.0
55775.0,STARLINK-5809,PAYLOAD,2023-04-09 00:09:16,15.69903737,0.0004122,69.9984,53.281,274.0626,86.0098,-2.3612e-05,-3.049e-05,0.0,0 STARLINK-5809,1 55775U 23028AL  23099.00644389 -.00003049  00000-0 -23612-4 0  9997,2 55775  69.9984  53.2810 0004122 274.0626  86.0098 15.69903737  6356,6737.309,91.725,361.952,356.397,0.0
55775.0,STARLINK-5809,PAYLOAD,2023-04-09 06:16:17,15.69900991,0.0003225,69.9997,52.5647,261.428,98.655,-2.4006e-05,-3.095e-05,0.0,0 STARLINK-5809,1 55775U 23028AL  23099.26131522 -.00003095  00000-0 -24006-4 0  9994,2 55775  69.9997  52.5647 0003225 261.4280  98.6550 15.69900991  6406,6737.317,91.726,361.355,357.009,0.0
55775.0,STARLINK-5809,PAYLOAD,2023-04-09 23:05:29,15.69953057,0.0002897,70.001,50.5929,226.6384,133.457,4.3891e-05,5.074e-05,0.0,0 STARLINK-5809,1 55775U 23028AL  23099.96215078  .00005074  00000-0  43891-4 0  9990,2 55775  70.0010  50.5929 0002897 226.6384 133.4570 15.69953057  6500,6737.168,91.722,360.985,357.082,0.0
55775.0,STARLINK-5809,PAYLOAD,2023-04-10 06:44:16,15.69943999,0.0003549,70.002,49.698,270.9069,89.172,3.5138e-05,4.018e-05,0.0,0 STARLINK-5809,1 55775U 23028AL  23100.28074135  .00004018  00000-0  35138-4 0  9997,2 55775  70.0020  49.6980 0003549 270.9069  89.1720 15.69943999  6557,6737.194,91.723,361.45,356.668,0.0
55775.0,STARLINK-5809,PAYLOAD,2023-04-10 20:30:03,15.69918517,0.0003518,69.999,48.0852,262.7455,97.3341,1.8385e-05,1.998e-05,0.0,0 STARLINK-5809,1 55775U 23028AL  23100.85421004  .00001998  00000-0  18385-4 0  9990,2 55775  69.9990  48.0852 0003518 262.7455  97.3341 15.69918517  6643,6737.267,91.725,361.502,356.762,0.0
55775.0,STARLINK-5809,PAYLOAD,2023-04-11 05:40:34,15.69915078,0.0002971,69.999,47.0108,258.433,101.6532,1.7549e-05,1.897e-05,0.0,0 STARLINK-5809,1 55775U 23028AL  23101.23651399  .00001897  00000-0  17549-4 0  9994,2 55775  69.9990  47.0108 0002971 258.4330 101.6532 15.69915078  6710,6737.277,91.725,361.144,357.14,0.0
55775.0,STARLINK-5809,PAYLOAD,2023-04-12 04:36:50,15.69953947,0.0003347,69.9987,44.3234,264.5283,95.5531,-3.4724e-05,-4.391e-05,0.0,0 STARLINK-5809,1 55775U 23028AL  23102.19224635 -.00004391  00000-0 -34724-4 0  9997,2 55775  69.9987  44.3234 0003347 264.5283  95.5531 15.69953947  6851,6737.166,91.722,361.286,356.776,0.0
55775.0,STARLINK-5809,PAYLOAD,2023-04-12 13:47:22,15.6991625,0.0002774,69.9992,43.2496,274.3293,85.7585,9.5641e-06,9.37e-06,0.0,0 STARLINK-5809,1 55775U 23028AL  23102.57456372  .00000937  00000-0  95641-5 0  9990,2 55775  69.9992  43.2496 0002774 274.3293  85.7585 15.69916250  6922,6737.274,91.725,361.008,357.27,0.0
55775.0,STARLINK-5809,PAYLOAD,2023-04-13 02:01:22,15.69921553,0.0003499,69.9992,41.8152,265.9224,94.1572,1.0721e-05,1.076e-05,0.0,0 STARLINK-5809,1 55775U 23028AL  23103.08429192  .00001076  00000-0  10721-4 0  9997,2 55775  69.9992  41.8152 0003499 265.9224  94.1572 15.69921553  6999,6737.258,91.724,361.481,356.766,0.0
55775.0,STARLINK-5809,PAYLOAD,2023-04-13 05:04:52,15.69925101,0.0003356,69.9993,41.4575,267.3223,92.7589,1.4264e-05,1.503e-05,0.0,0 STARLINK-5809,1 55775U 23028AL  23103.21172276  .00001503  00000-0  14264-4 0  9991,2 55775  69.9993  41.4575 0003356 267.3223  92.7589 15.69925101  7022,6737.248,91.724,361.374,356.852,0.0
55775.0,STARLINK-5809,PAYLOAD,2023-04-14 05:32:54,15.69935537,0.000308,69.9994,38.5909,265.1694,94.915,1.2588e-05,1.302e-05,0.0,0 STARLINK-5809,1 55775U 23028AL  23104.23118580  .00001302  00000-0  12588-4 0  9996,2 55775  69.9994  38.5909 0003080 265.1694  94.9150 15.69935537  7182,6737.218,91.724,361.158,357.008,0.0
55775.0,STARLINK-5809,PAYLOAD,2023-04-15 02:57:26,15.69923904,0.0003441,69.9988,36.0841,270.0067,90.0735,9.5336e-06,9.34e-06,0.0,0 STARLINK-5809,1 55775U 23028AL  23105.12322639  .00000934  00000-0  95336-5 0  9990,2 55775  69.9988  36.0841 0003441 270.0067  90.0735 15.69923904  7319,6737.252,91.724,361.435,356.798,0.0
55775.0,STARLINK-5809,PAYLOAD,2023-04-15 06:00:56,15.69925739,0.0003454,69.9987,35.7255,267.6139,92.4661,1.0898e-05,1.098e-05,0.0,0 STARLINK-5809,1 55775U 23028AL  23105.25065842  .00001098  00000-0  10898-4 0  9995,2 55775  69.9987  35.7255 0003454 267.6139  92.4661 15.69925739  7344,6737.246,91.724,361.439,356.784,0.0
